<?xml version="1.0" encoding="UTF-8"?>
<ndm xmlns:xsi="http://www.w3.org/2001/XMLSchema-instance" xsi:noNamespaceSchemaLocation="https://sanaregistry.org/r/ndmxml_unqualified/ndmxml-2.0.0-master-2.0.xsd">
<omm id="CCSDS_OMM_VERS" version="2.0">
<header><CREATION_DATE/><ORIGINATOR/></header><body><segment><metadata><OBJECT_NAME>IRIDIUM 159</OBJECT_NAME><OBJECT_ID>2018-061K</OBJECT_ID><CENTER_NAME>EARTH</CENTER_NAME><REF_FRAME>TEME</REF_FRAME><TIME_SYSTEM>UTC</TIME_SYSTEM><MEAN_ELEMENT_THEORY>SGP4</MEAN_ELEMENT_THEORY></metadata><data><meanElements><EPOCH>2024-03-01T21:56:30.033600</EPOCH><MEAN_MOTION>14.34218866</MEAN_MOTION><ECCENTRICITY>.0002177</ECCENTRICITY><INCLINATION>86.3947</INCLINATION><RA_OF_ASC_NODE>46.5998</RA_OF_ASC_NODE><ARG_OF_PERICENTER>85.1661</ARG_OF_PERICENTER><MEAN_ANOMALY>274.9783</MEAN_ANOMALY></meanElements><tleParameters><EPHEMERIS_TYPE>0</EPHEMERIS_TYPE><CLASSIFICATION_TYPE>U</CLASSIFICATION_TYPE><NORAD_CAT_ID>43578</NORAD_CAT_ID><ELEMENT_SET_NO>999</ELEMENT_SET_NO><REV_AT_EPOCH>29337</REV_AT_EPOCH><BSTAR>.73597E-4</BSTAR><MEAN_MOTION_DOT>.226E-5</MEAN_MOTION_DOT><MEAN_MOTION_DDOT>0</MEAN_MOTION_DDOT></tleParameters></data></segment></body></omm>
<omm id="CCSDS_OMM_VERS" version="2.0">
<header><CREATION_DATE/><ORIGINATOR/></header><body><segment><metadata><OBJECT_NAME>IRIDIUM 180</OBJECT_NAME><OBJECT_ID>2019-002A</OBJECT_ID><CENTER_NAME>EARTH</CENTER_NAME><REF_FRAME>TEME</REF_FRAME><TIME_SYSTEM>UTC</TIME_SYSTEM><MEAN_ELEMENT_THEORY>SGP4</MEAN_ELEMENT_THEORY></metadata><data><meanElements><EPOCH>2024-03-01T10:12:30.944160</EPOCH><MEAN_MOTION>14.34217708</MEAN_MOTION><ECCENTRICITY>.0002204</ECCENTRICITY><INCLINATION>86.4023</INCLINATION><RA_OF_ASC_NODE>343.7185</RA_OF_ASC_NODE><ARG_OF_PERICENTER>83.5613</ARG_OF_PERICENTER><MEAN_ANOMALY>276.5834</MEAN_ANOMALY></meanElements><tleParameters><EPHEMERIS_TYPE>0</EPHEMERIS_TYPE><CLASSIFICATION_TYPE>U</CLASSIFICATION_TYPE><NORAD_CAT_ID>43922</NORAD_CAT_ID><ELEMENT_SET_NO>999</ELEMENT_SET_NO><REV_AT_EPOCH>26891</REV_AT_EPOCH><BSTAR>.96606E-4</BSTAR><MEAN_MOTION_DOT>.29E-5</MEAN_MOTION_DOT><MEAN_MOTION_DDOT>0</MEAN_MOTION_DDOT></tleParameters></data></segment></body></omm>
<omm id="CCSDS_OMM_VERS" version="2.0">
<header><CREATION_DATE/><ORIGINATOR/></header><body><segment><metadata><OBJECT_NAME>IRIDIUM 176</OBJECT_NAME><OBJECT_ID>2019-002B</OBJECT_ID><CENTER_NAME>EARTH</CENTER_NAME><REF_FRAME>TEME</REF_FRAME><TIME_SYSTEM>UTC</TIME_SYSTEM><MEAN_ELEMENT_THEORY>SGP4</MEAN_ELEMENT_THEORY></metadata><data><meanElements><EPOCH>2024-03-02T06:32:30.121440</EPOCH><MEAN_MOTION>14.72280124</MEAN_MOTION><ECCENTRICITY>.000265</ECCENTRICITY><INCLINATION>86.6150</INCLINATION><RA_OF_ASC_NODE>343.3931</RA_OF_ASC_NODE><ARG_OF_PERICENTER>87.4475</ARG_OF_PERICENTER><MEAN_ANOMALY>272.7045</MEAN_ANOMALY></meanElements><tleParameters><EPHEMERIS_TYPE>0</EPHEMERIS_TYPE><CLASSIFICATION_TYPE>U</CLASSIFICATION_TYPE><NORAD_CAT_ID>43923</NORAD_CAT_ID><ELEMENT_SET_NO>999</ELEMENT_SET_NO><REV_AT_EPOCH>27611</REV_AT_EPOCH><BSTAR>.23801E-3</BSTAR><MEAN_MOTION_DOT>.1526E-4</MEAN_MOTION_DOT><MEAN_MOTION_DDOT>0</MEAN_MOTION_DDOT></tleParameters></data></segment></body></omm>
<omm id="CCSDS_OMM_VERS" version="2.0">
<header><CREATION_DATE/><ORIGINATOR/></header><body><segment><metadata><OBJECT_NAME>IRIDIUM 168</OBJECT_NAME><OBJECT_ID>2019-002C</OBJECT_ID><CENTER_NAME>EARTH</CENTER_NAME><REF_FRAME>TEME</REF_FRAME><TIME_SYSTEM>UTC</TIME_SYSTEM><MEAN_ELEMENT_THEORY>SGP4</MEAN_ELEMENT_THEORY></metadata><data><meanElements><EPOCH>2024-03-02T07:49:26.929632</EPOCH><MEAN_MOTION>14.34215964</MEAN_MOTION><ECCENTRICITY>.0002051</ECCENTRICITY><INCLINATION>86.4021</INCLINATION><RA_OF_ASC_NODE>343.3958</RA_OF_ASC_NODE><ARG_OF_PERICENTER>83.1466</ARG_OF_PERICENTER><MEAN_ANOMALY>276.9963</MEAN_ANOMALY></meanElements><tleParameters><EPHEMERIS_TYPE>0</EPHEMERIS_TYPE><CLASSIFICATION_TYPE>U</CLASSIFICATION_TYPE><NORAD_CAT_ID>43924</NORAD_CAT_ID><ELEMENT_SET_NO>999</ELEMENT_SET_NO><REV_AT_EPOCH>26902</REV_AT_EPOCH><BSTAR>-.83202E-4</BSTAR><MEAN_MOTION_DOT>-.213E-5</MEAN_MOTION_DOT><MEAN_MOTION_DDOT>0</MEAN_MOTION_DDOT></tleParameters></data></segment></body></omm>
<omm id="CCSDS_OMM_VERS" version="2.0">
<header><CREATION_DATE/><ORIGINATOR/></header><body><segment><metadata><OBJECT_NAME>IRIDIUM 173</OBJECT_NAME><OBJECT_ID>2019-002D</OBJECT_ID><CENTER_NAME>EARTH</CENTER_NAME><REF_FRAME>TEME</REF_FRAME><TIME_SYSTEM>UTC</TIME_SYSTEM><MEAN_ELEMENT_THEORY>SGP4</MEAN_ELEMENT_THEORY></metadata><data><meanElements><EPOCH>2024-03-01T19:47:53.988288</EPOCH><MEAN_MOTION>14.34220217</MEAN_MOTION><ECCENTRICITY>.0002116</ECCENTRICITY><INCLINATION>86.4021</INCLINATION><RA_OF_ASC_NODE>343.5286</RA_OF_ASC_NODE><ARG_OF_PERICENTER>82.4317</ARG_OF_PERICENTER><MEAN_ANOMALY>277.7119</MEAN_ANOMALY></meanElements><tleParameters><EPHEMERIS_TYPE>0</EPHEMERIS_TYPE><CLASSIFICATION_TYPE>U</CLASSIFICATION_TYPE><NORAD_CAT_ID>43925</NORAD_CAT_ID><ELEMENT_SET_NO>999</ELEMENT_SET_NO><REV_AT_EPOCH>26893</REV_AT_EPOCH><BSTAR>.13222E-3</BSTAR><MEAN_MOTION_DOT>.39E-5</MEAN_MOTION_DOT><MEAN_MOTION_DDOT>0</MEAN_MOTION_DDOT></tleParameters></data></segment></body></omm>
<omm id="CCSDS_OMM_VERS" version="2.0">
<header><CREATION_DATE/><ORIGINATOR/></header><body><segment><metadata><OBJECT_NAME>IRIDIUM 169</OBJECT_NAME><OBJECT_ID>2019-002E</OBJECT_ID><CENTER_NAME>EARTH</CENTER_NAME><REF_FRAME>TEME</REF_FRAME><TIME_SYSTEM>UTC</TIME_SYSTEM><MEAN_ELEMENT_THEORY>SGP4</MEAN_ELEMENT_THEORY></metadata><data><meanElements><EPOCH>2024-03-02T08:34:27.491232</EPOCH><MEAN_MOTION>14.38608549</MEAN_MOTION><ECCENTRICITY>.0001783</ECCENTRICITY><INCLINATION>86.4267</INCLINATION><RA_OF_ASC_NODE>14.8943</RA_OF_ASC_NODE><ARG_OF_PERICENTER>162.2114</ARG_OF_PERICENTER><MEAN_ANOMALY>197.9147</MEAN_ANOMALY></meanElements><tleParameters><EPHEMERIS_TYPE>0</EPHEMERIS_TYPE><CLASSIFICATION_TYPE>U</CLASSIFICATION_TYPE><NORAD_CAT_ID>43926</NORAD_CAT_ID><ELEMENT_SET_NO>999</ELEMENT_SET_NO><REV_AT_EPOCH>26991</REV_AT_EPOCH><BSTAR>.16746E-3</BSTAR><MEAN_MOTION_DOT>.532E-5</MEAN_MOTION_DOT><MEAN_MOTION_DDOT>0</MEAN_MOTION_DDOT></tleParameters></data></segment></body></omm>
<omm id="CCSDS_OMM_VERS" version="2.0">
<header><CREATION_DATE/><ORIGINATOR/></header><body><segment><metadata><OBJECT_NAME>IRIDIUM 172</OBJECT_NAME><OBJECT_ID>2019-002F</OBJECT_ID><CENTER_NAME>EARTH</CENTER_NAME><REF_FRAME>TEME</REF_FRAME><TIME_SYSTEM>UTC</TIME_SYSTEM><MEAN_ELEMENT_THEORY>SGP4</MEAN_ELEMENT_THEORY></metadata><data><meanElements><EPOCH>2024-03-01T07:55:30.874944</EPOCH><MEAN_MOTION>14.34217575</MEAN_MOTION><ECCENTRICITY>.000212</ECCENTRICITY><INCLINATION>86.4020</INCLINATION><RA_OF_ASC_NODE>343.7404</RA_OF_ASC_NODE><ARG_OF_PERICENTER>82.9528</ARG_OF_PERICENTER><MEAN_ANOMALY>277.1909</MEAN_ANOMALY></meanElements><tleParameters><EPHEMERIS_TYPE>0</EPHEMERIS_TYPE><CLASSIFICATION_TYPE>U</CLASSIFICATION_TYPE><NORAD_CAT_ID>43927</NORAD_CAT_ID><ELEMENT_SET_NO>999</ELEMENT_SET_NO><REV_AT_EPOCH>26887</REV_AT_EPOCH><BSTAR>-.19409E-4</BSTAR><MEAN_MOTION_DOT>-.35E-6</MEAN_MOTION_DOT><MEAN_MOTION_DDOT>0</MEAN_MOTION_DDOT></tleParameters></data></segment></body></omm>
<omm id="CCSDS_OMM_VERS" version="2.0">
<header><CREATION_DATE/><ORIGINATOR/></header><body><segment><metadata><OBJECT_NAME>IRIDIUM 175</OBJECT_NAME><OBJECT_ID>2019-002G</OBJECT_ID><CENTER_NAME>EARTH</CENTER_NAME><REF_FRAME>TEME</REF_FRAME><TIME_SYSTEM>UTC</TIME_SYSTEM><MEAN_ELEMENT_THEORY>SGP4</MEAN_ELEMENT_THEORY></metadata><data><meanElements><EPOCH>2024-03-02T06:24:05.223168</EPOCH><MEAN_MOTION>14.72265598</MEAN_MOTION><ECCENTRICITY>.0002274</ECCENTRICITY><INCLINATION>86.1536</INCLINATION><RA_OF_ASC_NODE>322.5922</RA_OF_ASC_NODE><ARG_OF_PERICENTER>85.1932</ARG_OF_PERICENTER><MEAN_ANOMALY>274.9544</MEAN_ANOMALY></meanElements><tleParameters><EPHEMERIS_TYPE>0</EPHEMERIS_TYPE><CLASSIFICATION_TYPE>U</CLASSIFICATION_TYPE><NORAD_CAT_ID>43928</NORAD_CAT_ID><ELEMENT_SET_NO>999</ELEMENT_SET_NO><REV_AT_EPOCH>27610</REV_AT_EPOCH><BSTAR>.21455E-3</BSTAR><MEAN_MOTION_DOT>.1378E-4</MEAN_MOTION_DOT><MEAN_MOTION_DDOT>0</MEAN_MOTION_DDOT></tleParameters></data></segment></body></omm>

</ndm>
