IRIDIUM 159             
1 43578U 18061K   24061.91423650  .00000226  00000+0  73597-4 0  9990
2 43578  86.3947  46.5998 0002177  85.1661 274.9783 14.34218866293378
IRIDIUM 180             
1 43922U 19002A   24061.42535815  .00000290  00000+0  96606-4 0  9999
2 43922  86.4023 343.7185 0002204  83.5613 276.5834 14.34217708268918
IRIDIUM 176             
1 43923U 19002B   24062.27257085  .00001526  00000+0  23801-3 0  9993
2 43923  86.6150 343.3931 0002650  87.4475 272.7045 14.72280124276118
IRIDIUM 168             
1 43924U 19002C   24062.32600613 -.00000213  00000+0 -83202-4 0  9995
2 43924  86.4021 343.3958 0002051  83.1466 276.9963 14.34215964269026
IRIDIUM 173             
1 43925U 19002D   24061.82493042  .00000390  00000+0  13222-3 0  9994
2 43925  86.4021 343.5286 0002116  82.4317 277.7119 14.34220217268930
IRIDIUM 169             
1 43926U 19002E   24062.35726263  .00000532  00000+0  16746-3 0  9990
2 43926  86.4267  14.8943 0001783 162.2114 197.9147 14.38608549269917
IRIDIUM 172             
1 43927U 19002F   24061.33021846 -.00000035  00000+0 -19409-4 0  9993
2 43927  86.4020 343.7404 0002120  82.9528 277.1909 14.34217575268876
IRIDIUM 175             
1 43928U 19002G   24062.26672712  .00001378  00000+0  21455-3 0  9993
2 43928  86.1536 322.5922 0002274  85.1932 274.9544 14.72265598276105
